STARLINK-2022           
1 47643U 21012Z   24287.15621037  .00042018  00000+0  28192-2 0  9996
2 47643  53.0542 192.4727 0001243 103.9514 256.1613 15.06449638203016
